[{"OBJECT_NAME":"STARLINK-31176","OBJECT_ID":"2024-005T","EPOCH":"2026-03-09T11:45:33.515136","MEAN_MOTION":15.26762477,"ECCENTRICITY":0.00013274,"INCLINATION":43.0008,"RA_OF_ASC_NODE":220.8392,"ARG_OF_PERICENTER":240.5194,"MEAN_ANOMALY":119.5525,"EPHEMERIS_TYPE":0,"CLASSIFICATION_TYPE":"U","NORAD_CAT_ID":58745,"ELEMENT_SET_NO":999,"REV_AT_EPOCH":12045,"BSTAR":-0.00012082743,"MEAN_MOTION_DOT":-3.501e-5,"MEAN_MOTION_DDOT":0},{"OBJECT_NAME":"PEGASUS R\/B","OBJECT_ID":"2007-015B","EPOCH":"2026-03-09T10:58:33.801024","MEAN_MOTION":15.26741121,"ECCENTRICITY":0.00105976,"INCLINATION":97.9168,"RA_OF_ASC_NODE":31.3919,"ARG_OF_PERICENTER":317.6341,"MEAN_ANOMALY":42.4077,"EPHEMERIS_TYPE":0,"CLASSIFICATION_TYPE":"U","NORAD_CAT_ID":31305,"ELEMENT_SET_NO":999,"REV_AT_EPOCH":3383,"BSTAR":0.00044093522,"MEAN_MOTION_DOT":0.00011537,"MEAN_MOTION_DDOT":0}]
